[{"OBJECT_NAME":"STARLINK-4097","OBJECT_ID":"2022-086Z","EPOCH":"2026-03-09T15:47:41.080704","MEAN_MOTION":15.0884524,"ECCENTRICITY":0.0001261,"INCLINATION":53.2179,"RA_OF_ASC_NODE":194.2629,"ARG_OF_PERICENTER":86.5063,"MEAN_ANOMALY":273.6074,"EPHEMERIS_TYPE":0,"CLASSIFICATION_TYPE":"U","NORAD_CAT_ID":53265,"ELEMENT_SET_NO":999,"REV_AT_EPOCH":20106,"BSTAR":-7.938136e-6,"MEAN_MOTION_DOT":-4.14e-6,"MEAN_MOTION_DDOT":0},{"OBJECT_NAME":"OBJECT A","OBJECT_ID":"2025-292A","EPOCH":"2026-03-09T21:45:44.016480","MEAN_MOTION":15.05451809,"ECCENTRICITY":0.00146319,"INCLINATION":97.6364,"RA_OF_ASC_NODE":145.598,"ARG_OF_PERICENTER":341.1551,"MEAN_ANOMALY":18.9132,"EPHEMERIS_TYPE":0,"CLASSIFICATION_TYPE":"U","NORAD_CAT_ID":66993,"ELEMENT_SET_NO":999,"REV_AT_EPOCH":1350,"BSTAR":0.00038878249,"MEAN_MOTION_DOT":5.535e-5,"MEAN_MOTION_DDOT":0}]
